{
  "links" : {
    "next" : "https://api.nasa.gov/neo/rest/v1/feed?start_date=2011-05-09&end_date=2011-05-09&detailed=true&api_key=t0TVs3DtDT2H8Oy2Zy8m2eVrNsAVKAexjcZXUckd",
    "prev" : "https://api.nasa.gov/neo/rest/v1/feed?start_date=2011-05-07&end_date=2011-05-07&detailed=true&api_key=t0TVs3DtDT2H8Oy2Zy8m2eVrNsAVKAexjcZXUckd",
    "self" : "https://api.nasa.gov/neo/rest/v1/feed?start_date=2011-05-08&end_date=2011-05-08&detailed=true&api_key=t0TVs3DtDT2H8Oy2Zy8m2eVrNsAVKAexjcZXUckd"
  },
  "element_count" : 11,
  "near_earth_objects" : {
    "2011-05-08" : [ {
      "links" : {
        "self" : "https://api.nasa.gov/neo/rest/v1/neo/3678560?api_key=t0TVs3DtDT2H8Oy2Zy8m2eVrNsAVKAexjcZXUckd"
      },
      "neo_reference_id" : "3678560",
      "name" : "(2014 OD338)",
      "nasa_jpl_url" : "http://ssd.jpl.nasa.gov/sbdb.cgi?sstr=3678560",
      "absolute_magnitude_h" : 21.7,
      "estimated_diameter" : {
        "kilometers" : {
          "estimated_diameter_min" : 0.1214940408,
          "estimated_diameter_max" : 0.2716689341
        },
        "meters" : {
          "estimated_diameter_min" : 121.4940407996,
          "estimated_diameter_max" : 271.6689340891
        },
        "miles" : {
          "estimated_diameter_min" : 0.0754928736,
          "estimated_diameter_max" : 0.1688071972
        },
        "feet" : {
          "estimated_diameter_min" : 398.6025088171,
          "estimated_diameter_max" : 891.3023057169
        }
      },
      "is_potentially_hazardous_asteroid" : false,
      "close_approach_data" : [ {
        "close_approach_date" : "2011-05-08",
        "epoch_date_close_approach" : 1304838000000,
        "relative_velocity" : {
          "kilometers_per_second" : "18.7933293597",
          "kilometers_per_hour" : "67655.9856949412",
          "miles_per_hour" : "42038.7984447261"
        },
        "miss_distance" : {
          "astronomical" : "0.4634793719",
          "lunar" : "180.29347229",
          "kilometers" : "69335528",
          "miles" : "43083100"
        },
        "orbiting_body" : "Earth"
      } ],
      "orbital_data" : {
        "orbit_id" : "12",
        "orbit_determination_date" : "2017-09-15 06:21:35",
        "orbit_uncertainty" : "0",
        "minimum_orbit_intersection" : ".074049",
        "jupiter_tisserand_invariant" : "3.573",
        "epoch_osculation" : "2458000.5",
        "eccentricity" : ".4955549256789625",
        "semi_major_axis" : "2.103495479027663",
        "inclination" : "5.745297492565904",
        "ascending_node_longitude" : "317.2889643804869",
        "orbital_period" : "1114.322247404344",
        "perihelion_distance" : "1.061097933252076",
        "perihelion_argument" : "317.8290409230534",
        "aphelion_distance" : "3.14589302480325",
        "perihelion_time" : "2457940.474195146955",
        "mean_anomaly" : "19.39231653808577",
        "mean_motion" : ".3230663309815173",
        "equinox" : "J2000"
      }
    }, {
      "links" : {
        "self" : "https://api.nasa.gov/neo/rest/v1/neo/3727346?api_key=t0TVs3DtDT2H8Oy2Zy8m2eVrNsAVKAexjcZXUckd"
      },
      "neo_reference_id" : "3727346",
      "name" : "(2015 RT82)",
      "nasa_jpl_url" : "http://ssd.jpl.nasa.gov/sbdb.cgi?sstr=3727346",
      "absolute_magnitude_h" : 25.7,
      "estimated_diameter" : {
        "kilometers" : {
          "estimated_diameter_min" : 0.0192555078,
          "estimated_diameter_max" : 0.0430566244
        },
        "meters" : {
          "estimated_diameter_min" : 19.2555078188,
          "estimated_diameter_max" : 43.0566244241
        },
        "miles" : {
          "estimated_diameter_min" : 0.0119648141,
          "estimated_diameter_max" : 0.0267541378
        },
        "feet" : {
          "estimated_diameter_min" : 63.1742402722,
          "estimated_diameter_max" : 141.2618956756
        }
      },
      "is_potentially_hazardous_asteroid" : false,
      "close_approach_data" : [ {
        "close_approach_date" : "2011-05-08",
        "epoch_date_close_approach" : 1304838000000,
        "relative_velocity" : {
          "kilometers_per_second" : "16.3391622423",
          "kilometers_per_hour" : "58820.9840721526",
          "miles_per_hour" : "36549.0720197217"
        },
        "miss_distance" : {
          "astronomical" : "0.3962699743",
          "lunar" : "154.149017334",
          "kilometers" : "59281144",
          "miles" : "36835596"
        },
        "orbiting_body" : "Earth"
      } ],
      "orbital_data" : {
        "orbit_id" : "11",
        "orbit_determination_date" : "2017-04-06 08:31:59",
        "orbit_uncertainty" : "7",
        "minimum_orbit_intersection" : ".00851415",
        "jupiter_tisserand_invariant" : "5.158",
        "epoch_osculation" : "2458000.5",
        "eccentricity" : ".2136362494479037",
        "semi_major_axis" : "1.236501197719796",
        "inclination" : "3.963053393879563",
        "ascending_node_longitude" : "165.2155687838542",
        "orbital_period" : "502.2156464058211",
        "perihelion_distance" : ".9723397194010983",
        "perihelion_argument" : "134.308955805781",
        "aphelion_distance" : "1.500662676038494",
        "perihelion_time" : "2458237.087158063058",
        "mean_anomaly" : "190.4087546609867",
        "mean_motion" : ".7168235449779236",
        "equinox" : "J2000"
      }
    }, {
      "links" : {
        "self" : "https://api.nasa.gov/neo/rest/v1/neo/3720000?api_key=t0TVs3DtDT2H8Oy2Zy8m2eVrNsAVKAexjcZXUckd"
      },
      "neo_reference_id" : "3720000",
      "name" : "(2015 KT120)",
      "nasa_jpl_url" : "http://ssd.jpl.nasa.gov/sbdb.cgi?sstr=3720000",
      "absolute_magnitude_h" : 25.1,
      "estimated_diameter" : {
        "kilometers" : {
          "estimated_diameter_min" : 0.0253837029,
          "estimated_diameter_max" : 0.0567596853
        },
        "meters" : {
          "estimated_diameter_min" : 25.3837029364,
          "estimated_diameter_max" : 56.7596852866
        },
        "miles" : {
          "estimated_diameter_min" : 0.0157726969,
          "estimated_diameter_max" : 0.0352688224
        },
        "feet" : {
          "estimated_diameter_min" : 83.279867942,
          "estimated_diameter_max" : 186.2194458756
        }
      },
      "is_potentially_hazardous_asteroid" : false,
      "close_approach_data" : [ {
        "close_approach_date" : "2011-05-08",
        "epoch_date_close_approach" : 1304838000000,
        "relative_velocity" : {
          "kilometers_per_second" : "13.5635261177",
          "kilometers_per_hour" : "48828.6940236689",
          "miles_per_hour" : "30340.2515726514"
        },
        "miss_distance" : {
          "astronomical" : "0.2720584361",
          "lunar" : "105.8307266235",
          "kilometers" : "40699360",
          "miles" : "25289410"
        },
        "orbiting_body" : "Earth"
      } ],
      "orbital_data" : {
        "orbit_id" : "8",
        "orbit_determination_date" : "2017-04-06 08:33:29",
        "orbit_uncertainty" : "2",
        "minimum_orbit_intersection" : ".132242",
        "jupiter_tisserand_invariant" : "6.071",
        "epoch_osculation" : "2458000.5",
        "eccentricity" : ".213240992919341",
        "semi_major_axis" : ".9917793163444358",
        "inclination" : "14.83781282138385",
        "ascending_node_longitude" : "72.48691883154835",
        "orbital_period" : "360.762175400384",
        "perihelion_distance" : ".7802913101702832",
        "perihelion_argument" : "27.62469613584903",
        "aphelion_distance" : "1.203267322518588",
        "perihelion_time" : "2458124.425615339074",
        "mean_anomaly" : "236.3361999562356",
        "mean_motion" : ".9978873189808825",
        "equinox" : "J2000"
      }
    } ]
  }
}